BEIDOU-3 G4             
1 56564U 23066A   24189.79632991 -.00000113  00000+0  00000+0 0  9997
2 56564   2.0718 288.2126 0005755 206.1227 238.5041  1.00273378  4296
ARCTURUS                
1 56371U 23060B   24189.99477109 -.00000120  00000+0  00000+0 0  9995
2 56371   0.9383  88.5386 0001176  96.8657 177.1260  1.00271462  4349
GS-1                    
1 56372U 23060C   24187.76438186 -.00000222  00000+0  00000+0 0  9994
2 56372   0.8852  87.6783 0003260 284.9184 275.7667  1.00262937   408
ARABSAT-7B (BADR-8)     
1 56757U 23075A   24186.86126295  .00000142  00000+0  00000+0 0  9992
2 56757   0.0705  26.0414 0003779   1.5994 231.7437  1.00272213  3991
IRNSS-1J (NVS-01)       
1 56759U 23076A   24190.00503976 -.00000336  00000+0  00000+0 0  9997
2 56759   3.9451 265.7088 0004649  10.4808 141.5736  1.00277011  4095
NUSANTARA TIGA (SATRIA) 
1 57045U 23086A   24188.93493959 -.00000239  00000+0  00000+0 0  9997
2 57045   0.0243   4.4266 0002475 338.9812  64.5436  1.00268558  2630
H2SAT (HEINRICH HERTZ)  
1 57213U 23093A   24189.05674225 -.00000003  00000+0  00000+0 0  9992
2 57213   0.0215  81.8074 0000861 133.6512  90.9629  1.00272231  3794
SYRACUSE 4B             
1 57214U 23093B   24189.95987119 -.00000057  00000+0  00000+0 0  9990
2 57214   0.0035 126.2588 0000278 141.5426 357.5798  1.00271952  4501
JUPITER 3 (ECHOSTAR 24) 
1 57479U 23108A   24189.47034730 -.00000153  00000+0  00000+0 0  9996
2 57479   0.0232  36.8344 0001516  62.9916 260.1911  1.00269886  3525
GALAXY 37 (G-37)        
1 57493U 23112A   24190.16870417  .00000045  00000+0  00000+0 0  9994
2 57493   0.0153  42.7442 0001783  59.5760 118.0064  1.00271478  3400
LUDI TANCE-4 01A        
1 57624U 23120A   24189.06676178 -.00000175  00000+0  00000+0 0  9999
2 57624  15.7243 211.2603 0002126 237.2673 310.6138  1.00270100  3426
TJS-10                  
1 58204U 23169A   24189.60849505 -.00000003  00000+0  00000+0 0  9993
2 58204   0.7023  88.5583 0000709 343.2567 246.1309  1.00270669  2420
ZHONGXING-6E            
1 58253U 23172A   24189.85396515 -.00000365  00000+0  00000+0 0  9997
2 58253   0.0226  46.1300 0002432  58.1157 245.0107  1.00267462  2545
YAOGAN-41               
1 58582U 23197A   24189.49806582 -.00000361  00000+0  00000+0 0  9995
2 58582   4.5566 307.7442 0018767 180.1658 100.5162  1.00268813  2209
OVZON-3                 
1 58698U 24003A   24189.94424632  .00000048  00000+0  00000+0 0  9993
2 58698   0.0169  56.0608 0002292 154.7629 115.1916  1.00271647  2114
INSAT-3DS               
1 58990U 24033A   24171.63670715 -.00000142  00000+0  00000+0 0  9999
2 58990   0.0159 349.8168 0010402 105.1251 125.6022  1.00268037   992
MERAH PUTIH 2           
1 58995U 24035A   24189.81179368 -.00000361  00000+0  00000+0 0  9996
2 58995   0.0130  62.8136 0000962  39.8829 228.7527  1.00271948  1516
TJS-11                  
1 59020U 24037A   24189.55708906 -.00000368  00000+0  00000+0 0  9992
2 59020   5.2933 321.4170 0005392 194.4701  90.8680  1.00268784  1461
HULIANWAN GAOGUI-01 (H*)
1 59069U 24040A   24189.86507949  .00000153  00000+0  00000+0 0  9998
2 59069   0.0377 105.0846 0002855 266.2487 260.0571  1.00271238  1463
PAKSAT-MM1              
1 59915U 24104A   24189.48596870  .00000150  00000+0  00000+0 0  9995
2 59915   0.0386 134.8039 0000233   5.1194 359.1603  1.00271494   481
