OBJECT_NAME,OBJECT_ID,EPOCH,MEAN_MOTION,ECCENTRICITY,INCLINATION,RA_OF_ASC_NODE,ARG_OF_PERICENTER,MEAN_ANOMALY,EPHEMERIS_TYPE,CLASSIFICATION_TYPE,NORAD_CAT_ID,ELEMENT_SET_NO,REV_AT_EPOCH,BSTAR,MEAN_MOTION_DOT,MEAN_MOTION_DDOT
ARCTURUS,2023-060B,2024-07-07T23:52:28.222176,1.00271462,.0001176,0.9383,88.5386,96.8657,177.1260,0,U,56371,999,434,0,-.12E-5,0
GS-1,2023-060C,2024-07-05T18:20:42.592704,1.00262937,.000326,0.8852,87.6783,284.9184,275.7667,0,U,56372,999,40,0,-.222E-5,0
BEIDOU-3 G4,2023-066A,2024-07-07T19:06:42.904224,1.00273378,.0005755,2.0718,288.2126,206.1227,238.5041,0,U,56564,999,429,0,-.113E-5,0
ARABSAT-7B (BADR-8),2023-075A,2024-07-04T20:40:13.118880,1.00272213,.0003779,0.0705,26.0414,1.5994,231.7437,0,U,56757,999,399,0,.142E-5,0
IRNSS-1J (NVS-01),2023-076A,2024-07-08T00:07:15.435264,1.00277011,.0004649,3.9451,265.7088,10.4808,141.5736,0,U,56759,999,409,0,-.336E-5,0
NUSANTARA TIGA (SATRIA),2023-086A,2024-07-06T22:26:18.780576,1.00268558,.0002475,0.0243,4.4266,338.9812,64.5436,0,U,57045,999,263,0,-.239E-5,0
H2SAT (HEINRICH HERTZ),2023-093A,2024-07-07T01:21:42.530400,1.00272231,.0000861,0.0215,81.8074,133.6512,90.9629,0,U,57213,999,379,0,-.3E-7,0
SYRACUSE 4B,2023-093B,2024-07-07T23:02:12.870816,1.00271952,.0000278,0.0035,126.2588,141.5426,357.5798,0,U,57214,999,450,0,-.57E-6,0
JUPITER 3 (ECHOSTAR 24),2023-108A,2024-07-07T11:17:18.006720,1.00269886,.0001516,0.0232,36.8344,62.9916,260.1911,0,U,57479,999,352,0,-.153E-5,0
GALAXY 37 (G-37),2023-112A,2024-07-08T04:02:56.040288,1.00271478,.0001783,0.0153,42.7442,59.5760,118.0064,0,U,57493,999,340,0,.45E-6,0
LUDI TANCE-4 01A,2023-120A,2024-07-07T01:36:08.217792,1.00270100,.0002126,15.7243,211.2603,237.2673,310.6138,0,U,57624,999,342,0,-.175E-5,0
TJS-10,2023-169A,2024-07-07T14:36:13.972320,1.00270669,.0000709,0.7023,88.5583,343.2567,246.1309,0,U,58204,999,242,0,-.3E-7,0
ZHONGXING-6E,2023-172A,2024-07-07T20:29:42.588960,1.00267462,.0002432,0.0226,46.1300,58.1157,245.0107,0,U,58253,999,254,0,-.365E-5,0
YAOGAN-41,2023-197A,2024-07-07T11:57:12.886848,1.00268813,.0018767,4.5566,307.7442,180.1658,100.5162,0,U,58582,999,220,0,-.361E-5,0
OVZON-3,2024-003A,2024-07-07T22:39:42.882048,1.00271647,.0002292,0.0169,56.0608,154.7629,115.1916,0,U,58698,999,211,0,.48E-6,0
INSAT-3DS,2024-033A,2024-06-19T15:16:51.497760,1.00268037,.0010402,0.0159,349.8168,105.1251,125.6022,0,U,58990,999,99,0,-.142E-5,0
MERAH PUTIH 2,2024-035A,2024-07-07T19:28:58.973952,1.00271948,.0000962,0.0130,62.8136,39.8829,228.7527,0,U,58995,999,151,0,-.361E-5,0
TJS-11,2024-037A,2024-07-07T13:22:12.494784,1.00268784,.0005392,5.2933,321.4170,194.4701,90.8680,0,U,59020,999,146,0,-.368E-5,0
HULIANWAN GAOGUI-01 (HG-01),2024-040A,2024-07-07T20:45:42.867936,1.00271238,.0002855,0.0377,105.0846,266.2487,260.0571,0,U,59069,999,146,0,.153E-5,0
PAKSAT-MM1,2024-104A,2024-07-07T11:39:47.695680,1.00271494,.0000233,0.0386,134.8039,5.1194,359.1603,0,U,59915,999,48,0,.15E-5,0
